LEMUR-2-FURIAUS         
1 42840U 17042R   26068.96143223  .00025928  00000+0  99966-3 0  9991
2 42840  97.3753 248.4990 0007537  55.8686 304.3266 15.26272951473053
STARLINK-30875          
1 58224U 23170U   26068.37231528  .00000142  00000+0  14947-4 0  9992
2 58224  42.9974 195.7665 0000354 217.8694 142.2133 15.26737349130250
